COMMENT,ORIGINATOR,NORAD_CAT_ID,OBJECT_NAME,OBJECT_TYPE,CLASSIFICATION_TYPE,INTLDES,EPOCH,EPOCH_MICROSECONDS,MEAN_MOTION,ECCENTRICITY,INCLINATION,RA_OF_ASC_NODE,ARG_OF_PERICENTER,MEAN_ANOMALY,EPHEMERIS_TYPE,ELEMENT_SET_NO,REV_AT_EPOCH,BSTAR,MEAN_MOTION_DOT,MEAN_MOTION_DDOT,FILE,TLE_LINE0,TLE_LINE1,TLE_LINE2,OBJECT_ID,OBJECT_NUMBER,SEMIMAJOR_AXIS,PERIOD,APOGEE,PERIGEE,DECAYED
"GENERATED VIA SPACETRACK.ORG API","18 SPCS","48888","SPACEBEE-103","PAYLOAD","U","21059K","2022-11-12 02:45:10","442016","15.19130778","0.0007523","97.5741","85.476","314.708","45.354","0","999","7632","0.00083281","0.00017463","0","3652021","0 SPACEBEE-103","1 48888U 21059K   22316.11470419  .00017463  00000-0  83281-3 0  9990","2 48888  97.5741  85.4760 0007523 314.7080  45.3540 15.19130778 76322","2021-059K","48888","6886.603","94.791","513.649","503.288","0"
"GENERATED VIA SPACETRACK.ORG API","18 SPCS","48888","SPACEBEE-103","PAYLOAD","U","21059K","2022-11-12 07:29:43","608192","15.19139313","0.0007503","97.5741","85.6742","313.8597","46.2016","0","999","7635","0.00087353","0.00018327","0","3652392","0 SPACEBEE-103","1 48888U 21059K   22316.31231028  .00018327  00000-0  87353-3 0  9997","2 48888  97.5741  85.6742 0007503 313.8597  46.2016 15.19139313 76350","2021-059K","48888","6886.578","94.791","513.610","503.276","0"
"GENERATED VIA SPACETRACK.ORG API","18 SPCS","48888","SPACEBEE-103","PAYLOAD","U","21059K","2022-11-12 21:43:22","697184","15.19156689","0.0007467","97.5742","86.2685","311.761","48.2985","0","999","7644","0.00070595","0.00014798","0","3652635","0 SPACEBEE-103","1 48888U 21059K   22316.90512381  .00014798  00000-0  70595-3 0  9994","2 48888  97.5742  86.2685 0007467 311.7610  48.2985 15.19156689 76448","2021-059K","48888","6886.525","94.789","513.532","503.248","0"
"GENERATED VIA SPACETRACK.ORG API","18 SPCS","48888","SPACEBEE-103","PAYLOAD","U","21059K","2022-11-13 08:47:19","324032","15.19171245","0.000745","97.5742","86.7308","310.1416","49.9164","0","999","7651","0.00066446","0.00013928","0","3653157","0 SPACEBEE-103","1 48888U 21059K   22317.36619588  .00013928  00000-0  66446-3 0  9996","2 48888  97.5742  86.7308 0007450 310.1416  49.9164 15.19171245 76514","2021-059K","48888","6886.481","94.789","513.476","503.216","0"
"GENERATED VIA SPACETRACK.ORG API","18 SPCS","48888","SPACEBEE-103","PAYLOAD","U","21059K","2022-11-13 08:47:19","324032","15.19171245","0.000745","97.5742","86.7308","310.1416","49.9164","0","999","7651","0.00066446","0.00013928","0","3653238","0 SPACEBEE-103","1 48888U 21059K   22317.36619588  .00013928  00000-0  66446-3 0  9996","2 48888  97.5742  86.7308 0007450 310.1416  49.9164 15.19171245 76514","2021-059K","48888","6886.481","94.789","513.476","503.216","0"
"GENERATED VIA SPACETRACK.ORG API","18 SPCS","48888","SPACEBEE-103","PAYLOAD","U","21059K","2022-11-14 08:30:02","357280","15.19199464","0.0007385","97.5742","87.7213","306.4685","53.5869","0","999","7666","0.00061152","0.00012821","0","3654975","0 SPACEBEE-103","1 48888U 21059K   22318.35419395  .00012821  00000-0  61152-3 0  9990","2 48888  97.5742  87.7213 0007385 306.4685  53.5869 15.19199464 76665","2021-059K","48888","6886.396","94.787","513.346","503.175","0"
"GENERATED VIA SPACETRACK.ORG API","18 SPCS","48888","SPACEBEE-103","PAYLOAD","U","21059K","2022-11-14 19:33:57","910176","15.19211013","0.0007391","97.574","88.1836","304.6231","55.4306","0","999","7673","0.00056581","0.0001186","0","3656014","0 SPACEBEE-103","1 48888U 21059K   22318.81525359  .00011860  00000-0  56581-3 0  9991","2 48888  97.5740  88.1836 0007391 304.6231  55.4306 15.19211013 76733","2021-059K","48888","6886.361","94.786","513.316","503.136","0"
"GENERATED VIA SPACETRACK.ORG API","18 SPCS","48888","SPACEBEE-103","PAYLOAD","U","21059K","2022-11-14 21:08:48","678144","15.1921272","0.0007386","97.574","88.2496","304.3858","55.6677","0","999","7674","0.00055792","0.00011694","0","3655997","0 SPACEBEE-103","1 48888U 21059K   22318.88111896  .00011694  00000-0  55792-3 0  9993","2 48888  97.5740  88.2496 0007386 304.3858  55.6677 15.19212720 76742","2021-059K","48888","6886.356","94.786","513.307","503.134","0"
"GENERATED VIA SPACETRACK.ORG API","18 SPCS","48888","SPACEBEE-103","PAYLOAD","U","21059K","2022-11-15 08:12:43","856928","15.19226554","0.0007375","97.5739","88.7119","302.5695","57.4827","0","999","7681","0.00059902","0.00012567","0","3657603","0 SPACEBEE-103","1 48888U 21059K   22319.34217427  .00012567  00000-0  59902-3 0  9999","2 48888  97.5739  88.7119 0007375 302.5695  57.4827 15.19226554 76819","2021-059K","48888","6886.314","94.785","513.258","503.100","0"
"GENERATED VIA SPACETRACK.ORG API","18 SPCS","48888","SPACEBEE-103","PAYLOAD","U","21059K","2022-11-15 20:51:29","472768","15.19237147","0.0007397","97.5738","89.2402","300.4706","59.5797","0","999","7689","0.00052125","0.00010927","0","3657961","0 SPACEBEE-103","1 48888U 21059K   22319.86909112  .00010927  00000-0  52125-3 0  9993","2 48888  97.5738  89.2402 0007397 300.4706  59.5797 15.19237147 76890","2021-059K","48888","6886.282","94.784","513.241","503.053","0"
"GENERATED VIA SPACETRACK.ORG API","18 SPCS","48888","SPACEBEE-103","PAYLOAD","U","21059K","2022-11-15 22:26:20","151744","15.19238423","0.0007387","97.5738","89.3063","300.1999","59.8503","0","999","7690","0.00051379","0.0001077","0","3658396","0 SPACEBEE-103","1 48888U 21059K   22319.93495546  .00010770  00000-0  51379-3 0  9998","2 48888  97.5738  89.3063 0007387 300.1999  59.8503 15.19238423 76902","2021-059K","48888","6886.278","94.784","513.230","503.056","0"
"GENERATED VIA SPACETRACK.ORG API","18 SPCS","48888","SPACEBEE-103","PAYLOAD","U","21059K","2022-11-16 07:55:24","94272","15.19247455","0.0007392","97.5737","89.7025","298.6193","61.4297","0","999","7696","0.00050823","0.00010655","0","3659788","0 SPACEBEE-103","1 48888U 21059K   22320.33013998  .00010655  00000-0  50823-3 0  9996","2 48888  97.5737  89.7025 0007392 298.6193  61.4297 15.19247455 76966","2021-059K","48888","6886.251","94.784","513.206","503.025","0"
"GENERATED VIA SPACETRACK.ORG API","18 SPCS","48888","SPACEBEE-103","PAYLOAD","U","21059K","2022-11-17 07:38:03","33888","15.19271056","0.0007427","97.5736","90.6928","294.9428","65.1034","0","999","7711","0.00054318","0.00011402","0","3661645","0 SPACEBEE-103","1 48888U 21059K   22321.31809067  .00011402  00000-0  54318-3 0  9999","2 48888  97.5736  90.6928 0007427 294.9428  65.1034 15.19271056 77119","2021-059K","48888","6886.179","94.782","513.159","502.930","0"
"GENERATED VIA SPACETRACK.ORG API","18 SPCS","48888","SPACEBEE-103","PAYLOAD","U","21059K","2022-11-17 07:38:03","33888","15.19271056","0.0007427","97.5736","90.6928","294.9428","65.1034","0","999","7711","0.00054318","0.00011402","0","3661693","0 SPACEBEE-103","1 48888U 21059K   22321.31809067  .00011402  00000-0  54318-3 0  9999","2 48888  97.5736  90.6928 0007427 294.9428  65.1034 15.19271056 77119","2021-059K","48888","6886.179","94.782","513.159","502.930","0"
"GENERATED VIA SPACETRACK.ORG API","18 SPCS","48888","SPACEBEE-103","PAYLOAD","U","21059K","2022-11-18 07:20:40","687008","15.19293524","0.0007327","97.5737","91.6835","291.226","68.8191","0","999","7726","0.00050607","0.00010624","0","3662515","0 SPACEBEE-103","1 48888U 21059K   22322.30602647  .00010624  00000-0  50607-3 0  9996","2 48888  97.5737  91.6835 0007327 291.2260  68.8191 15.19293524 77265","2021-059K","48888","6886.111","94.781","513.022","502.931","0"
"GENERATED VIA SPACETRACK.ORG API","18 SPCS","48888","SPACEBEE-103","PAYLOAD","U","21059K","2022-11-19 02:18:45","854784","15.19313115","0.0007266","97.5738","92.476","288.1636","71.8807","0","999","7738","0.00055253","0.00011614","0","3663016","0 SPACEBEE-103","1 48888U 21059K   22323.09636406  .00011614  00000-0  55253-3 0  9995","2 48888  97.5738  92.4760 0007266 288.1636  71.8807 15.19313115 77386","2021-059K","48888","6886.052","94.780","512.921","502.914","0"
"GENERATED VIA SPACETRACK.ORG API","18 SPCS","48888","SPACEBEE-103","PAYLOAD","U","21059K","2022-11-19 07:03:17","10432","15.19319177","0.000723","97.5739","92.6742","287.4005","72.6439","0","999","7741","0.00058993","0.00012408","0","3663316","0 SPACEBEE-103","1 48888U 21059K   22323.29394688  .00012408  00000-0  58993-3 0  9996","2 48888  97.5739  92.6742 0007230 287.4005  72.6439 15.19319177 77410","2021-059K","48888","6886.034","94.779","512.878","502.920","0"
"GENERATED VIA SPACETRACK.ORG API","18 SPCS","48888","SPACEBEE-103","PAYLOAD","U","21059K","2022-11-20 08:20:42","355680","15.19340996","0.0007216","97.5737","93.7309","283.2018","76.8411","0","999","7757","0.00047527","0.00009986","0","3664409","0 SPACEBEE-103","1 48888U 21059K   22324.34771245  .00009986  00000-0  47527-3 0  9999","2 48888  97.5737  93.7309 0007216 283.2018  76.8411 15.19340996 77577","2021-059K","48888","6885.968","94.778","512.802","502.864","0"
"GENERATED VIA SPACETRACK.ORG API","18 SPCS","48888","SPACEBEE-103","PAYLOAD","U","21059K","2022-11-20 08:20:42","355680","15.19340996","0.0007216","97.5737","93.7309","283.2018","76.8411","0","999","7757","0.00047527","0.00009986","0","3664760","0 SPACEBEE-103","1 48888U 21059K   22324.34771245  .00009986  00000-0  47527-3 0  9999","2 48888  97.5737  93.7309 0007216 283.2018  76.8411 15.19340996 77577","2021-059K","48888","6885.968","94.778","512.802","502.864","0"
"GENERATED VIA SPACETRACK.ORG API","18 SPCS","48888","SPACEBEE-103","PAYLOAD","U","21059K","2022-11-20 20:59:24","527616","15.19352036","0.0007292","97.5737","94.2593","281.1494","78.8921","0","999","7765","0.0004841","0.00010176","0","3665715","0 SPACEBEE-103","1 48888U 21059K   22324.87458944  .00010176  00000-0  48410-3 0  9990","2 48888  97.5737  94.2593 0007292 281.1494  78.8921 15.19352036 77652","2021-059K","48888","6885.935","94.777","512.821","502.778","0"
